{
  "type": "FeatureCollection",
  "features": [
    {
      "type": "Feature",
      "properties": {
        "norad_id": 66641,
        "name": "STARLINK-35923",
        "group": "last-30-days",
        "lat": -52.29826806086569,
        "lon": 139.4379874972925,
        "alt_km": 352.0968459700107,
        "timestamp": "2025-12-06T22:38:41.509840+00:00",
        "meta_object_name": "STARLINK-35923",
        "meta_object_id": "2025-271AA",
        "meta_epoch": "2025-12-06T14:00:01.999872",
        "meta_mean_motion": 15.74168756,
        "meta_eccentricity": 5.377e-05,
        "meta_inclination": 53.1572,
        "meta_ra_of_asc_node": 217.1746,
        "meta_arg_of_pericenter": 95.3509,
        "meta_mean_anomaly": 300.8672,
        "meta_ephemeris_type": 0,
        "meta_classification_type": "U",
        "meta_norad_cat_id": 66641,
        "meta_element_set_no": 999,
        "meta_rev_at_epoch": 325,
        "meta_bstar": 0.00016390661,
        "meta_mean_motion_dot": 0.00023421,
        "meta_mean_motion_ddot": 0,
        "tle_line1": "1 66641U 25271AA  25340.58335648  .00023421  00000+0  16391-3 0  9990",
        "tle_line2": "2 66641  53.1572 217.1746 0000537  95.3509 300.8672 15.74168756  3258"
      },
      "geometry": {
        "type": "Point",
        "coordinates": [
          139.4379874972925,
          -52.29826806086569
        ]
      }
    },
    {
      "type": "Feature",
      "properties": {
        "norad_id": 66642,
        "name": "STARLINK-35926",
        "group": "last-30-days",
        "lat": -52.63052641008991,
        "lon": 136.3459587563846,
        "alt_km": 352.1620523371512,
        "timestamp": "2025-12-06T22:38:41.509852+00:00",
        "meta_object_name": "STARLINK-35926",
        "meta_object_id": "2025-271AB",
        "meta_epoch": "2025-12-06T14:00:01.999872",
        "meta_mean_motion": 15.74161389,
        "meta_eccentricity": 6.059e-05,
        "meta_inclination": 53.1576,
        "meta_ra_of_asc_node": 217.1794,
        "meta_arg_of_pericenter": 91.359,
        "meta_mean_anomaly": 302.9477,
        "meta_ephemeris_type": 0,
        "meta_classification_type": "U",
        "meta_norad_cat_id": 66642,
        "meta_element_set_no": 999,
        "meta_rev_at_epoch": 301,
        "meta_bstar": 0.00019274236,
        "meta_mean_motion_dot": 0.00027658,
        "meta_mean_motion_ddot": 0,
        "tle_line1": "1 66642U 25271AB  25340.58335648  .00027658  00000+0  19274-3 0  9990",
        "tle_line2": "2 66642  53.1576 217.1794 0000605  91.3590 302.9477 15.74161389  3013"
      },
      "geometry": {
        "type": "Point",
        "coordinates": [
          136.3459587563846,
          -52.63052641008991
        ]
      }
    },
    {
      "type": "Feature",
      "properties": {
        "norad_id": 66643,
        "name": "STARLINK-35918",
        "group": "last-30-days",
        "lat": -53.04675276448347,
        "lon": 130.05133802976002,
        "alt_km": 352.5696990440438,
        "timestamp": "2025-12-06T22:38:41.509863+00:00",
        "meta_object_name": "STARLINK-35918",
        "meta_object_id": "2025-271AC",
        "meta_epoch": "2025-12-06T14:00:01.999872",
        "meta_mean_motion": 15.74132185,
        "meta_eccentricity": 0.00012522,
        "meta_inclination": 53.1576,
        "meta_ra_of_asc_node": 217.1877,
        "meta_arg_of_pericenter": 96.0698,
        "meta_mean_anomaly": 294.4111,
        "meta_ephemeris_type": 0,
        "meta_classification_type": "U",
        "meta_norad_cat_id": 66643,
        "meta_element_set_no": 999,
        "meta_rev_at_epoch": 325,
        "meta_bstar": 0.00057347246,
        "meta_mean_motion_dot": 0.00083991,
        "meta_mean_motion_ddot": 0,
        "tle_line1": "1 66643U 25271AC  25340.58335648  .00083991  00000+0  57347-3 0  9996",
        "tle_line2": "2 66643  53.1576 217.1877 0001252  96.0698 294.4111 15.74132185  3254"
      },
      "geometry": {
        "type": "Point",
        "coordinates": [
          130.05133802976002,
          -53.04675276448347
        ]
      }
    },
    {
      "type": "Feature",
      "properties": {
        "norad_id": 66644,
        "name": "STARLINK-35938",
        "group": "last-30-days",
        "lat": -52.87976364325214,
        "lon": 133.2196181328708,
        "alt_km": 352.0763233290836,
        "timestamp": "2025-12-06T22:38:41.509873+00:00",
        "meta_object_name": "STARLINK-35938",
        "meta_object_id": "2025-271AD",
        "meta_epoch": "2025-12-06T14:00:01.999872",
        "meta_mean_motion": 15.74143768,
        "meta_eccentricity": 5.748e-05,
        "meta_inclination": 53.1574,
        "meta_ra_of_asc_node": 217.1832,
        "meta_arg_of_pericenter": 122.9314,
        "meta_mean_anomaly": 269.4646,
        "meta_ephemeris_type": 0,
        "meta_classification_type": "U",
        "meta_norad_cat_id": 66644,
        "meta_element_set_no": 999,
        "meta_rev_at_epoch": 325,
        "meta_bstar": 0.00042081332,
        "meta_mean_motion_dot": 0.00061328,
        "meta_mean_motion_ddot": 0,
        "tle_line1": "1 66644U 25271AD  25340.58335648  .00061328  00000+0  42081-3 0  9996",
        "tle_line2": "2 66644  53.1574 217.1832 0000574 122.9314 269.4646 15.74143768  3258"
      },
      "geometry": {
        "type": "Point",
        "coordinates": [
          133.2196181328708,
          -52.87976364325214
        ]
      }
    },
    {
      "type": "Feature",
      "properties": {
        "norad_id": 66645,
        "name": "SHENZHOU-22",
        "group": "last-30-days",
        "lat": -20.44447156924916,
        "lon": 26.91717646806857,
        "alt_km": 386.723578523156,
        "timestamp": "2025-12-06T22:38:41.509882+00:00",
        "meta_object_name": "SHENZHOU-22",
        "meta_object_id": "2025-272A",
        "meta_epoch": "2025-12-06T15:05:32.998560",
        "meta_mean_motion": 15.5879906,
        "meta_eccentricity": 0.00095344,
        "meta_inclination": 41.4683,
        "meta_ra_of_asc_node": 53.7961,
        "meta_arg_of_pericenter": 342.8614,
        "meta_mean_anomaly": 17.1901,
        "meta_ephemeris_type": 0,
        "meta_classification_type": "U",
        "meta_norad_cat_id": 66645,
        "meta_element_set_no": 999,
        "meta_rev_at_epoch": 26300,
        "meta_bstar": 0.00036466504,
        "meta_mean_motion_dot": 0.00028802,
        "meta_mean_motion_ddot": 0,
        "tle_line1": "1 66645U 25272A   25340.62885415  .00028802  00000+0  36467-3 0  9996",
        "tle_line2": "2 66645  41.4683  53.7961 0009534 342.8614  17.1901 15.58799060263005"
      },
      "geometry": {
        "type": "Point",
        "coordinates": [
          26.91717646806857,
          -20.44447156924916
        ]
      }
    },
    {
      "type": "Feature",
      "properties": {
        "norad_id": 66646,
        "name": "CZ-2F R/B",
        "group": "last-30-days",
        "lat": 35.394082248827324,
        "lon": 99.68349356169607,
        "alt_km": 195.89253159235068,
        "timestamp": "2025-12-06T22:38:41.509893+00:00",
        "meta_object_name": "CZ-2F R/B",
        "meta_object_id": "2025-272B",
        "meta_epoch": "2025-12-06T15:03:31.842432",
        "meta_mean_motion": 16.3225557,
        "meta_eccentricity": 0.0042353,
        "meta_inclination": 41.4546,
        "meta_ra_of_asc_node": 48.2158,
        "meta_arg_of_pericenter": 219.2345,
        "meta_mean_anomaly": 140.5446,
        "meta_ephemeris_type": 0,
        "meta_classification_type": "U",
        "meta_norad_cat_id": 66646,
        "meta_element_set_no": 999,
        "meta_rev_at_epoch": 185,
        "meta_bstar": 0.00051205,
        "meta_mean_motion_dot": 0.04297839,
        "meta_mean_motion_ddot": 7.8251e-06,
        "tle_line1": "1 66646U 25272B   25340.62745188  .04297839  78251-5  51205-3 0  9997",
        "tle_line2": "2 66646  41.4546  48.2158 0042353 219.2345 140.5446 16.32255570  1859"
      },
      "geometry": {
        "type": "Point",
        "coordinates": [
          99.68349356169607,
          35.394082248827324
        ]
      }
    },
    {
      "type": "Feature",
      "properties": {
        "norad_id": 66647,
        "name": "COSMOS 2597 (RODNIK-S 22)",
        "group": "last-30-days",
        "lat": 52.709690010387924,
        "lon": 100.08534058455662,
        "alt_km": 1499.6388582557884,
        "timestamp": "2025-12-06T22:38:41.509905+00:00",
        "meta_object_name": "COSMOS 2597 (RODNIK-S 22)",
        "meta_object_id": "2025-273A",
        "meta_epoch": "2025-12-06T14:13:54.075072",
        "meta_mean_motion": 12.41951156,
        "meta_eccentricity": 0.0008033,
        "meta_inclination": 82.498,
        "meta_ra_of_asc_node": 290.2663,
        "meta_arg_of_pericenter": 303.7388,
        "meta_mean_anomaly": 56.2926,
        "meta_ephemeris_type": 0,
        "meta_classification_type": "U",
        "meta_norad_cat_id": 66647,
        "meta_element_set_no": 999,
        "meta_rev_at_epoch": 137,
        "meta_bstar": 0.00010942522,
        "meta_mean_motion_dot": 2.5e-07,
        "meta_mean_motion_ddot": 0,
        "tle_line1": "1 66647U 25273A   25340.59298698  .00000025  00000+0  10943-3 0  9994",
        "tle_line2": "2 66647  82.4980 290.2663 0008033 303.7388  56.2926 12.41951156  1372"
      },
      "geometry": {
        "type": "Point",
        "coordinates": [
          100.08534058455662,
          52.709690010387924
        ]
      }
    }
  ]
}